{
  "type": "FeatureCollection",
  "features": [
    {
      "type": "Feature",
      "properties": {
        "norad_id": 64751,
        "name": "PROGRESS-MS 31",
        "group": "stations",
        "lat": -0.9114556511944767,
        "lon": -44.59967383519108,
        "alt_km": 417.8882058451045,
        "timestamp": "2025-12-14T07:33:18.210525+00:00",
        "meta_object_name": "PROGRESS-MS 31",
        "meta_object_id": "2025-146A",
        "meta_epoch": "2025-12-13T13:45:03.960000",
        "meta_mean_motion": 15.49569091,
        "meta_eccentricity": 0.00032302,
        "meta_inclination": 51.6303,
        "meta_ra_of_asc_node": 138.3533,
        "meta_arg_of_pericenter": 244.1175,
        "meta_mean_anomaly": 115.9481,
        "meta_ephemeris_type": 0,
        "meta_classification_type": "U",
        "meta_norad_cat_id": 64751,
        "meta_element_set_no": 999,
        "meta_rev_at_epoch": 675,
        "meta_bstar": 0.00023044054,
        "meta_mean_motion_dot": 0.00012521,
        "meta_mean_motion_ddot": 0,
        "tle_line1": "1 64751U 25146A   25347.57296250  .00012521  00000+0  23044-3 0  9994",
        "tle_line2": "2 64751  51.6303 138.3533 0003230 244.1175 115.9481 15.49569091  6757"
      },
      "geometry": {
        "type": "Point",
        "coordinates": [
          -44.59967383519108,
          -0.9114556511944767
        ]
      }
    },
    {
      "type": "Feature",
      "properties": {
        "norad_id": 64786,
        "name": "TIANZHOU-9",
        "group": "stations",
        "lat": -4.3493543076465775,
        "lon": 2.2032797675242843,
        "alt_km": 386.3756620380518,
        "timestamp": "2025-12-14T07:33:18.210536+00:00",
        "meta_object_name": "TIANZHOU-9",
        "meta_object_id": "2025-149A",
        "meta_epoch": "2025-12-13T13:08:11.407200",
        "meta_mean_motion": 15.59213599,
        "meta_eccentricity": 0.0008179,
        "meta_inclination": 41.4684,
        "meta_ra_of_asc_node": 11.8051,
        "meta_arg_of_pericenter": 37.3165,
        "meta_mean_anomaly": 322.8241,
        "meta_ephemeris_type": 0,
        "meta_classification_type": "U",
        "meta_norad_cat_id": 64786,
        "meta_element_set_no": 999,
        "meta_rev_at_epoch": 25530,
        "meta_bstar": 0.00029086041,
        "meta_mean_motion_dot": 0.00023242,
        "meta_mean_motion_ddot": 0,
        "tle_line1": "1 64786U 25149A   25347.54735425  .00023242  00000+0  29086-3 0  9998",
        "tle_line2": "2 64786  41.4684  11.8051 0008179  37.3165 322.8241 15.59213599255302"
      },
      "geometry": {
        "type": "Point",
        "coordinates": [
          2.2032797675242843,
          -4.3493543076465775
        ]
      }
    },
    {
      "type": "Feature",
      "properties": {
        "norad_id": 65077,
        "name": "CREW DRAGON 11",
        "group": "stations",
        "lat": -0.911456714969202,
        "lon": -44.599672993290504,
        "alt_km": 417.88820593463424,
        "timestamp": "2025-12-14T07:33:18.210546+00:00",
        "meta_object_name": "CREW DRAGON 11",
        "meta_object_id": "2025-166A",
        "meta_epoch": "2025-12-13T13:45:03.960000",
        "meta_mean_motion": 15.49569091,
        "meta_eccentricity": 0.00032302,
        "meta_inclination": 51.6303,
        "meta_ra_of_asc_node": 138.3533,
        "meta_arg_of_pericenter": 244.1175,
        "meta_mean_anomaly": 115.9481,
        "meta_ephemeris_type": 0,
        "meta_classification_type": "U",
        "meta_norad_cat_id": 65077,
        "meta_element_set_no": 999,
        "meta_rev_at_epoch": 214,
        "meta_bstar": 0.00023044054,
        "meta_mean_motion_dot": 0.00012521,
        "meta_mean_motion_ddot": 0,
        "tle_line1": "1 65077U 25166A   25347.57296250  .00012521  00000+0  23044-3 0  9998",
        "tle_line2": "2 65077  51.6303 138.3533 0003230 244.1175 115.9481 15.49569091  2148"
      },
      "geometry": {
        "type": "Point",
        "coordinates": [
          -44.599672993290504,
          -0.911456714969202
        ]
      }
    },
    {
      "type": "Feature",
      "properties": {
        "norad_id": 65304,
        "name": "DRAGON CRS-33",
        "group": "stations",
        "lat": -0.9114573734956163,
        "lon": -44.59967247211458,
        "alt_km": 417.88820599006067,
        "timestamp": "2025-12-14T07:33:18.210559+00:00",
        "meta_object_name": "DRAGON CRS-33",
        "meta_object_id": "2025-186A",
        "meta_epoch": "2025-12-13T13:45:03.960000",
        "meta_mean_motion": 15.49569091,
        "meta_eccentricity": 0.00032302,
        "meta_inclination": 51.6303,
        "meta_ra_of_asc_node": 138.3533,
        "meta_arg_of_pericenter": 244.1175,
        "meta_mean_anomaly": 115.9481,
        "meta_ephemeris_type": 0,
        "meta_classification_type": "U",
        "meta_norad_cat_id": 65304,
        "meta_element_set_no": 999,
        "meta_rev_at_epoch": 11,
        "meta_bstar": 0.00023044054,
        "meta_mean_motion_dot": 0.00012521,
        "meta_mean_motion_ddot": 0,
        "tle_line1": "1 65304U 25186A   25347.57296250  .00012521  00000+0  23044-3 0  9993",
        "tle_line2": "2 65304  51.6303 138.3533 0003230 244.1175 115.9481 15.49569091   116"
      },
      "geometry": {
        "type": "Point",
        "coordinates": [
          -44.59967247211458,
          -0.9114573734956163
        ]
      }
    },
    {
      "type": "Feature",
      "properties": {
        "norad_id": 65586,
        "name": "PROGRESS-MS 32",
        "group": "stations",
        "lat": -0.9114578800543945,
        "lon": -44.599672071210065,
        "alt_km": 417.88820603269323,
        "timestamp": "2025-12-14T07:33:18.210569+00:00",
        "meta_object_name": "PROGRESS-MS 32",
        "meta_object_id": "2025-204A",
        "meta_epoch": "2025-12-13T13:45:03.960000",
        "meta_mean_motion": 15.49569091,
        "meta_eccentricity": 0.00032302,
        "meta_inclination": 51.6303,
        "meta_ra_of_asc_node": 138.3533,
        "meta_arg_of_pericenter": 244.1175,
        "meta_mean_anomaly": 115.9481,
        "meta_ephemeris_type": 0,
        "meta_classification_type": "U",
        "meta_norad_cat_id": 65586,
        "meta_element_set_no": 999,
        "meta_rev_at_epoch": 27,
        "meta_bstar": 0.00023044054,
        "meta_mean_motion_dot": 0.00012521,
        "meta_mean_motion_ddot": 0,
        "tle_line1": "1 65586U 25204A   25347.57296250  .00012521  00000+0  23044-3 0  9996",
        "tle_line2": "2 65586  51.6303 138.3533 0003230 244.1175 115.9481 15.49569091   275"
      },
      "geometry": {
        "type": "Point",
        "coordinates": [
          -44.599672071210065,
          -0.9114578800543945
        ]
      }
    },
    {
      "type": "Feature",
      "properties": {
        "norad_id": 65616,
        "name": "CYGNUS NG-23",
        "group": "stations",
        "lat": -0.9114583866131729,
        "lon": -44.59967167030548,
        "alt_km": 417.8882060753249,
        "timestamp": "2025-12-14T07:33:18.210579+00:00",
        "meta_object_name": "CYGNUS NG-23",
        "meta_object_id": "2025-208A",
        "meta_epoch": "2025-12-13T13:45:03.960000",
        "meta_mean_motion": 15.49569091,
        "meta_eccentricity": 0.00032302,
        "meta_inclination": 51.6303,
        "meta_ra_of_asc_node": 138.3533,
        "meta_arg_of_pericenter": 244.1175,
        "meta_mean_anomaly": 115.9481,
        "meta_ephemeris_type": 0,
        "meta_classification_type": "U",
        "meta_norad_cat_id": 65616,
        "meta_element_set_no": 999,
        "meta_rev_at_epoch": 22,
        "meta_bstar": 0.00023044054,
        "meta_mean_motion_dot": 0.00012521,
        "meta_mean_motion_ddot": 0,
        "tle_line1": "1 65616U 25208A   25347.57296250  .00012521  00000+0  23044-3 0  9994",
        "tle_line2": "2 65616  51.6303 138.3533 0003230 244.1175 115.9481 15.49569091   224"
      },
      "geometry": {
        "type": "Point",
        "coordinates": [
          -44.59967167030548,
          -0.9114583866131729
        ]
      }
    },
    {
      "type": "Feature",
      "properties": {
        "norad_id": 65729,
        "name": "DRAGONFLY",
        "group": "stations",
        "lat": -48.22740850555293,
        "lon": 65.17081630829239,
        "alt_km": 351.6043761586652,
        "timestamp": "2025-12-14T07:33:18.210589+00:00",
        "meta_object_name": "DRAGONFLY",
        "meta_object_id": "1998-067XH",
        "meta_epoch": "2025-12-13T16:36:27.743328",
        "meta_mean_motion": 15.72310549,
        "meta_eccentricity": 0.00068171,
        "meta_inclination": 51.6241,
        "meta_ra_of_asc_node": 130.8872,
        "meta_arg_of_pericenter": 284.278,
        "meta_mean_anomaly": 75.7461,
        "meta_ephemeris_type": 0,
        "meta_classification_type": "U",
        "meta_norad_cat_id": 65729,
        "meta_element_set_no": 999,
        "meta_rev_at_epoch": 1331,
        "meta_bstar": 0.0013020604,
        "meta_mean_motion_dot": 0.00179632,
        "meta_mean_motion_ddot": 0,
        "tle_line1": "1 65729U 98067XH  25347.69198777  .00179632  00000+0  13021-2 0  9990",
        "tle_line2": "2 65729  51.6241 130.8872 0006817 284.2780  75.7461 15.72310549 13317"
      },
      "geometry": {
        "type": "Point",
        "coordinates": [
          65.17081630829239,
          -48.22740850555293
        ]
      }
    }
  ]
}